[{"OBJECT_NAME":"GEESAT-1 06","OBJECT_ID":"2022-058F","EPOCH":"2026-03-09T21:42:30.443328","MEAN_MOTION":14.8101583,"ECCENTRICITY":0.00346377,"INCLINATION":50.0048,"RA_OF_ASC_NODE":301.1801,"ARG_OF_PERICENTER":126.8919,"MEAN_ANOMALY":233.5201,"EPHEMERIS_TYPE":0,"CLASSIFICATION_TYPE":"U","NORAD_CAT_ID":52790,"ELEMENT_SET_NO":999,"REV_AT_EPOCH":20521,"BSTAR":0.00037629546,"MEAN_MOTION_DOT":2.747e-5,"MEAN_MOTION_DDOT":0},{"OBJECT_NAME":"FENGYUN 1C DEB","OBJECT_ID":"1999-025AEY","EPOCH":"2026-03-09T19:16:38.619264","MEAN_MOTION":14.92699645,"ECCENTRICITY":0.00328142,"INCLINATION":98.9116,"RA_OF_ASC_NODE":104.6855,"ARG_OF_PERICENTER":181.0852,"MEAN_ANOMALY":235.9591,"EPHEMERIS_TYPE":0,"CLASSIFICATION_TYPE":"U","NORAD_CAT_ID":30437,"ELEMENT_SET_NO":999,"REV_AT_EPOCH":482,"BSTAR":0.0024447577,"MEAN_MOTION_DOT":0.00025496,"MEAN_MOTION_DDOT":0}]
